ONEWEB-0545             
1 54647U 22166F   24159.33360707  .00000022  00000+0  22718-4 0  9990
2 54647  87.9292  31.2834 0001758  99.3602 260.7731 13.21825493 74236
ONEWEB-0580             
1 54648U 22166G   24158.39843880 -.00000532  00000+0 -13208-2 0  9994
2 54648  87.9302  31.4371 0001241  98.3131 261.8143 13.21827935 73680
ONEWEB-0582             
1 54649U 22166H   24159.04657730  .00000103  00000+0  21674-3 0  9994
2 54649  87.9296  31.3462 0001228  96.5214 263.6059 13.21824646 74212
ONEWEB-0583             
1 54650U 22166J   24159.36040499  .00000135  00000+0  29488-3 0  9995
2 54650  87.9296  31.2840 0001867  85.6796 274.4551 13.21826427 74278
ONEWEB-0584             
1 54651U 22166K   24158.39684366 -.00000557  00000+0 -13810-2 0  9996
2 54651  87.9299  31.4407 0001637  87.2818 272.8503 13.21828412 73657
ONEWEB-0585             
1 54652U 22166L   24159.02765970 -.00000023  00000+0 -86276-4 0  9995
2 54652  87.9304  31.3238 0001896  80.0845 280.0503 13.21825777 74219
ONEWEB-0586             
1 54653U 22166M   24159.34305460  .00000057  00000+0  10673-3 0  9997
2 54653  87.9298  31.2768 0001699  88.9004 271.2325 13.21823981 74257
ONEWEB-0587             
1 54654U 22166N   24159.35252113  .00000106  00000+0  22579-3 0  9998
2 54654  87.9295  31.2302 0002096  77.6926 282.4442 13.21827787 74408
